{
  "type": "FeatureCollection",
  "features": [
    {
      "type": "Feature",
      "id": "node_0",
      "geometry": {
        "type": "Point",
        "coordinates": [
          11.502,
          3.848
        ]
      },
      "properties": {
        "id": "node_0"
      }
    },
    {
      "type": "Feature",
      "id": "node_1",
      "geometry": {
        "type": "Point",
        "coordinates": [
          11.512,
          3.848
        ]
      },
      "properties": {
        "id": "node_1"
      }
    },
    {
      "type": "Feature",
      "id": "node_2",
      "geometry": {
        "type": "Point",
        "coordinates": [
          11.522,
          3.848
        ]
      },
      "properties": {
        "id": "node_2"
      }
    },
    {
      "type": "Feature",
      "id": "node_3",
      "geometry": {
        "type": "Point",
        "coordinates": [
          11.532,
          3.848
        ]
      },
      "properties": {
        "id": "node_3"
      }
    },
    {
      "type": "Feature",
      "id": "node_4",
      "geometry": {
        "type": "Point",
        "coordinates": [
          11.542,
          3.848
        ]
      },
      "properties": {
        "id": "node_4"
      }
    },
    {
      "type": "Feature",
      "id": "node_5",
      "geometry": {
        "type": "Point",
        "coordinates": [
          11.552000000000001,
          3.848
        ]
      },
      "properties": {
        "id": "node_5"
      }
    },
    {
      "type": "Feature",
      "id": "node_6",
      "geometry": {
        "type": "Point",
        "coordinates": [
          11.562000000000001,
          3.848
        ]
      },
      "properties": {
        "id": "node_6"
      }
    },
    {
      "type": "Feature",
      "id": "node_7",
      "geometry": {
        "type": "Point",
        "coordinates": [
          11.502,
          3.8579999999999997
        ]
      },
      "properties": {
        "id": "node_7"
      }
    },
    {
      "type": "Feature",
      "id": "node_8",
      "geometry": {
        "type": "Point",
        "coordinates": [
          11.512,
          3.8579999999999997
        ]
      },
      "properties": {
        "id": "node_8"
      }
    },
    {
      "type": "Feature",
      "id": "node_9",
      "geometry": {
        "type": "Point",
        "coordinates": [
          11.522,
          3.8579999999999997
        ]
      },
      "properties": {
        "id": "node_9"
      }
    },
    {
      "type": "Feature",
      "id": "node_10",
      "geometry": {
        "type": "Point",
        "coordinates": [
          11.532,
          3.8579999999999997
        ]
      },
      "properties": {
        "id": "node_10"
      }
    },
    {
      "type": "Feature",
      "id": "node_11",
      "geometry": {
        "type": "Point",
        "coordinates": [
          11.542,
          3.8579999999999997
        ]
      },
      "properties": {
        "id": "node_11"
      }
    },
    {
      "type": "Feature",
      "id": "node_12",
      "geometry": {
        "type": "Point",
        "coordinates": [
          11.552000000000001,
          3.8579999999999997
        ]
      },
      "properties": {
        "id": "node_12"
      }
    },
    {
      "type": "Feature",
      "id": "node_13",
      "geometry": {
        "type": "Point",
        "coordinates": [
          11.562000000000001,
          3.8579999999999997
        ]
      },
      "properties": {
        "id": "node_13"
      }
    },
    {
      "type": "Feature",
      "id": "node_14",
      "geometry": {
        "type": "Point",
        "coordinates": [
          11.502,
          3.868
        ]
      },
      "properties": {
        "id": "node_14"
      }
    },
    {
      "type": "Feature",
      "id": "node_15",
      "geometry": {
        "type": "Point",
        "coordinates": [
          11.512,
          3.868
        ]
      },
      "properties": {
        "id": "node_15"
      }
    },
    {
      "type": "Feature",
      "id": "node_16",
      "geometry": {
        "type": "Point",
        "coordinates": [
          11.522,
          3.868
        ]
      },
      "properties": {
        "id": "node_16"
      }
    },
    {
      "type": "Feature",
      "id": "node_17",
      "geometry": {
        "type": "Point",
        "coordinates": [
          11.532,
          3.868
        ]
      },
      "properties": {
        "id": "node_17"
      }
    },
    {
      "type": "Feature",
      "id": "node_18",
      "geometry": {
        "type": "Point",
        "coordinates": [
          11.542,
          3.868
        ]
      },
      "properties": {
        "id": "node_18"
      }
    },
    {
      "type": "Feature",
      "id": "node_19",
      "geometry": {
        "type": "Point",
        "coordinates": [
          11.552000000000001,
          3.868
        ]
      },
      "properties": {
        "id": "node_19"
      }
    },
    {
      "type": "Feature",
      "id": "node_20",
      "geometry": {
        "type": "Point",
        "coordinates": [
          11.562000000000001,
          3.868
        ]
      },
      "properties": {
        "id": "node_20"
      }
    },
    {
      "type": "Feature",
      "id": "node_21",
      "geometry": {
        "type": "Point",
        "coordinates": [
          11.502,
          3.8779999999999997
        ]
      },
      "properties": {
        "id": "node_21"
      }
    },
    {
      "type": "Feature",
      "id": "node_22",
      "geometry": {
        "type": "Point",
        "coordinates": [
          11.512,
          3.8779999999999997
        ]
      },
      "properties": {
        "id": "node_22"
      }
    },
    {
      "type": "Feature",
      "id": "node_23",
      "geometry": {
        "type": "Point",
        "coordinates": [
          11.522,
          3.8779999999999997
        ]
      },
      "properties": {
        "id": "node_23"
      }
    },
    {
      "type": "Feature",
      "id": "node_24",
      "geometry": {
        "type": "Point",
        "coordinates": [
          11.532,
          3.8779999999999997
        ]
      },
      "properties": {
        "id": "node_24"
      }
    },
    {
      "type": "Feature",
      "id": "node_25",
      "geometry": {
        "type": "Point",
        "coordinates": [
          11.542,
          3.8779999999999997
        ]
      },
      "properties": {
        "id": "node_25"
      }
    },
    {
      "type": "Feature",
      "id": "node_26",
      "geometry": {
        "type": "Point",
        "coordinates": [
          11.552000000000001,
          3.8779999999999997
        ]
      },
      "properties": {
        "id": "node_26"
      }
    },
    {
      "type": "Feature",
      "id": "node_27",
      "geometry": {
        "type": "Point",
        "coordinates": [
          11.562000000000001,
          3.8779999999999997
        ]
      },
      "properties": {
        "id": "node_27"
      }
    },
    {
      "type": "Feature",
      "id": "node_28",
      "geometry": {
        "type": "Point",
        "coordinates": [
          11.502,
          3.888
        ]
      },
      "properties": {
        "id": "node_28"
      }
    },
    {
      "type": "Feature",
      "id": "node_29",
      "geometry": {
        "type": "Point",
        "coordinates": [
          11.512,
          3.888
        ]
      },
      "properties": {
        "id": "node_29"
      }
    },
    {
      "type": "Feature",
      "id": "node_30",
      "geometry": {
        "type": "Point",
        "coordinates": [
          11.522,
          3.888
        ]
      },
      "properties": {
        "id": "node_30"
      }
    },
    {
      "type": "Feature",
      "id": "node_31",
      "geometry": {
        "type": "Point",
        "coordinates": [
          11.532,
          3.888
        ]
      },
      "properties": {
        "id": "node_31"
      }
    },
    {
      "type": "Feature",
      "id": "node_32",
      "geometry": {
        "type": "Point",
        "coordinates": [
          11.542,
          3.888
        ]
      },
      "properties": {
        "id": "node_32"
      }
    },
    {
      "type": "Feature",
      "id": "node_33",
      "geometry": {
        "type": "Point",
        "coordinates": [
          11.552000000000001,
          3.888
        ]
      },
      "properties": {
        "id": "node_33"
      }
    },
    {
      "type": "Feature",
      "id": "node_34",
      "geometry": {
        "type": "Point",
        "coordinates": [
          11.562000000000001,
          3.888
        ]
      },
      "properties": {
        "id": "node_34"
      }
    },
    {
      "type": "Feature",
      "id": "node_35",
      "geometry": {
        "type": "Point",
        "coordinates": [
          11.502,
          3.8979999999999997
        ]
      },
      "properties": {
        "id": "node_35"
      }
    },
    {
      "type": "Feature",
      "id": "node_36",
      "geometry": {
        "type": "Point",
        "coordinates": [
          11.512,
          3.8979999999999997
        ]
      },
      "properties": {
        "id": "node_36"
      }
    },
    {
      "type": "Feature",
      "id": "node_37",
      "geometry": {
        "type": "Point",
        "coordinates": [
          11.522,
          3.8979999999999997
        ]
      },
      "properties": {
        "id": "node_37"
      }
    },
    {
      "type": "Feature",
      "id": "node_38",
      "geometry": {
        "type": "Point",
        "coordinates": [
          11.532,
          3.8979999999999997
        ]
      },
      "properties": {
        "id": "node_38"
      }
    },
    {
      "type": "Feature",
      "id": "node_39",
      "geometry": {
        "type": "Point",
        "coordinates": [
          11.542,
          3.8979999999999997
        ]
      },
      "properties": {
        "id": "node_39"
      }
    },
    {
      "type": "Feature",
      "id": "node_40",
      "geometry": {
        "type": "Point",
        "coordinates": [
          11.552000000000001,
          3.8979999999999997
        ]
      },
      "properties": {
        "id": "node_40"
      }
    },
    {
      "type": "Feature",
      "id": "node_41",
      "geometry": {
        "type": "Point",
        "coordinates": [
          11.562000000000001,
          3.8979999999999997
        ]
      },
      "properties": {
        "id": "node_41"
      }
    },
    {
      "type": "Feature",
      "id": "node_42",
      "geometry": {
        "type": "Point",
        "coordinates": [
          11.502,
          3.908
        ]
      },
      "properties": {
        "id": "node_42"
      }
    },
    {
      "type": "Feature",
      "id": "node_43",
      "geometry": {
        "type": "Point",
        "coordinates": [
          11.512,
          3.908
        ]
      },
      "properties": {
        "id": "node_43"
      }
    },
    {
      "type": "Feature",
      "id": "node_44",
      "geometry": {
        "type": "Point",
        "coordinates": [
          11.522,
          3.908
        ]
      },
      "properties": {
        "id": "node_44"
      }
    },
    {
      "type": "Feature",
      "id": "node_45",
      "geometry": {
        "type": "Point",
        "coordinates": [
          11.532,
          3.908
        ]
      },
      "properties": {
        "id": "node_45"
      }
    },
    {
      "type": "Feature",
      "id": "node_46",
      "geometry": {
        "type": "Point",
        "coordinates": [
          11.542,
          3.908
        ]
      },
      "properties": {
        "id": "node_46"
      }
    },
    {
      "type": "Feature",
      "id": "node_47",
      "geometry": {
        "type": "Point",
        "coordinates": [
          11.552000000000001,
          3.908
        ]
      },
      "properties": {
        "id": "node_47"
      }
    },
    {
      "type": "Feature",
      "id": "node_48",
      "geometry": {
        "type": "Point",
        "coordinates": [
          11.562000000000001,
          3.908
        ]
      },
      "properties": {
        "id": "node_48"
      }
    },
    {
      "type": "Feature",
      "id": "node_49",
      "geometry": {
        "type": "Point",
        "coordinates": [
          11.502,
          3.9179999999999997
        ]
      },
      "properties": {
        "id": "node_49"
      }
    },
    {
      "type": "Feature",
      "id": "node_50",
      "geometry": {
        "type": "Point",
        "coordinates": [
          11.512,
          3.9179999999999997
        ]
      },
      "properties": {
        "id": "node_50"
      }
    },
    {
      "type": "Feature",
      "id": "node_51",
      "geometry": {
        "type": "Point",
        "coordinates": [
          11.522,
          3.9179999999999997
        ]
      },
      "properties": {
        "id": "node_51"
      }
    },
    {
      "type": "Feature",
      "id": "node_52",
      "geometry": {
        "type": "Point",
        "coordinates": [
          11.532,
          3.9179999999999997
        ]
      },
      "properties": {
        "id": "node_52"
      }
    },
    {
      "type": "Feature",
      "id": "node_53",
      "geometry": {
        "type": "Point",
        "coordinates": [
          11.542,
          3.9179999999999997
        ]
      },
      "properties": {
        "id": "node_53"
      }
    },
    {
      "type": "Feature",
      "id": "node_54",
      "geometry": {
        "type": "Point",
        "coordinates": [
          11.552000000000001,
          3.9179999999999997
        ]
      },
      "properties": {
        "id": "node_54"
      }
    },
    {
      "type": "Feature",
      "id": "node_55",
      "geometry": {
        "type": "Point",
        "coordinates": [
          11.562000000000001,
          3.9179999999999997
        ]
      },
      "properties": {
        "id": "node_55"
      }
    },
    {
      "type": "Feature",
      "geometry": {
        "type": "LineString",
        "coordinates": [
          [
            11.502,
            3.848
          ],
          [
            11.512,
            3.848
          ]
        ]
      },
      "properties": {
        "segment_id": "seg_1",
        "u": "node_0",
        "v": "node_1",
        "distance_m": 1435,
        "road_type": "primary"
      }
    },
    {
      "type": "Feature",
      "geometry": {
        "type": "LineString",
        "coordinates": [
          [
            11.502,
            3.848
          ],
          [
            11.502,
            3.8579999999999997
          ]
        ]
      },
      "properties": {
        "segment_id": "seg_2",
        "u": "node_0",
        "v": "node_7",
        "distance_m": 1446,
        "road_type": "primary"
      }
    },
    {
      "type": "Feature",
      "geometry": {
        "type": "LineString",
        "coordinates": [
          [
            11.512,
            3.848
          ],
          [
            11.522,
            3.848
          ]
        ]
      },
      "properties": {
        "segment_id": "seg_3",
        "u": "node_1",
        "v": "node_2",
        "distance_m": 1174,
        "road_type": "residential"
      }
    },
    {
      "type": "Feature",
      "geometry": {
        "type": "LineString",
        "coordinates": [
          [
            11.512,
            3.848
          ],
          [
            11.512,
            3.8579999999999997
          ]
        ]
      },
      "properties": {
        "segment_id": "seg_4",
        "u": "node_1",
        "v": "node_8",
        "distance_m": 1365,
        "road_type": "secondary"
      }
    },
    {
      "type": "Feature",
      "geometry": {
        "type": "LineString",
        "coordinates": [
          [
            11.522,
            3.848
          ],
          [
            11.532,
            3.848
          ]
        ]
      },
      "properties": {
        "segment_id": "seg_5",
        "u": "node_2",
        "v": "node_3",
        "distance_m": 1317,
        "road_type": "primary"
      }
    },
    {
      "type": "Feature",
      "geometry": {
        "type": "LineString",
        "coordinates": [
          [
            11.522,
            3.848
          ],
          [
            11.522,
            3.8579999999999997
          ]
        ]
      },
      "properties": {
        "segment_id": "seg_6",
        "u": "node_2",
        "v": "node_9",
        "distance_m": 1235,
        "road_type": "secondary"
      }
    },
    {
      "type": "Feature",
      "geometry": {
        "type": "LineString",
        "coordinates": [
          [
            11.532,
            3.848
          ],
          [
            11.542,
            3.848
          ]
        ]
      },
      "properties": {
        "segment_id": "seg_7",
        "u": "node_3",
        "v": "node_4",
        "distance_m": 1241,
        "road_type": "residential"
      }
    },
    {
      "type": "Feature",
      "geometry": {
        "type": "LineString",
        "coordinates": [
          [
            11.532,
            3.848
          ],
          [
            11.532,
            3.8579999999999997
          ]
        ]
      },
      "properties": {
        "segment_id": "seg_8",
        "u": "node_3",
        "v": "node_10",
        "distance_m": 1074,
        "road_type": "primary"
      }
    },
    {
      "type": "Feature",
      "geometry": {
        "type": "LineString",
        "coordinates": [
          [
            11.542,
            3.848
          ],
          [
            11.552000000000001,
            3.848
          ]
        ]
      },
      "properties": {
        "segment_id": "seg_9",
        "u": "node_4",
        "v": "node_5",
        "distance_m": 1106,
        "road_type": "track"
      }
    },
    {
      "type": "Feature",
      "geometry": {
        "type": "LineString",
        "coordinates": [
          [
            11.542,
            3.848
          ],
          [
            11.542,
            3.8579999999999997
          ]
        ]
      },
      "properties": {
        "segment_id": "seg_10",
        "u": "node_4",
        "v": "node_11",
        "distance_m": 1261,
        "road_type": "track"
      }
    },
    {
      "type": "Feature",
      "geometry": {
        "type": "LineString",
        "coordinates": [
          [
            11.552000000000001,
            3.848
          ],
          [
            11.562000000000001,
            3.848
          ]
        ]
      },
      "properties": {
        "segment_id": "seg_11",
        "u": "node_5",
        "v": "node_6",
        "distance_m": 1321,
        "road_type": "residential"
      }
    },
    {
      "type": "Feature",
      "geometry": {
        "type": "LineString",
        "coordinates": [
          [
            11.552000000000001,
            3.848
          ],
          [
            11.552000000000001,
            3.8579999999999997
          ]
        ]
      },
      "properties": {
        "segment_id": "seg_12",
        "u": "node_5",
        "v": "node_12",
        "distance_m": 995,
        "road_type": "track"
      }
    },
    {
      "type": "Feature",
      "geometry": {
        "type": "LineString",
        "coordinates": [
          [
            11.562000000000001,
            3.848
          ],
          [
            11.562000000000001,
            3.8579999999999997
          ]
        ]
      },
      "properties": {
        "segment_id": "seg_13",
        "u": "node_6",
        "v": "node_13",
        "distance_m": 1402,
        "road_type": "primary"
      }
    },
    {
      "type": "Feature",
      "geometry": {
        "type": "LineString",
        "coordinates": [
          [
            11.502,
            3.8579999999999997
          ],
          [
            11.512,
            3.8579999999999997
          ]
        ]
      },
      "properties": {
        "segment_id": "seg_14",
        "u": "node_7",
        "v": "node_8",
        "distance_m": 1050,
        "road_type": "residential"
      }
    },
    {
      "type": "Feature",
      "geometry": {
        "type": "LineString",
        "coordinates": [
          [
            11.502,
            3.8579999999999997
          ],
          [
            11.502,
            3.868
          ]
        ]
      },
      "properties": {
        "segment_id": "seg_15",
        "u": "node_7",
        "v": "node_14",
        "distance_m": 1492,
        "road_type": "track"
      }
    },
    {
      "type": "Feature",
      "geometry": {
        "type": "LineString",
        "coordinates": [
          [
            11.512,
            3.8579999999999997
          ],
          [
            11.522,
            3.8579999999999997
          ]
        ]
      },
      "properties": {
        "segment_id": "seg_16",
        "u": "node_8",
        "v": "node_9",
        "distance_m": 1146,
        "road_type": "residential"
      }
    },
    {
      "type": "Feature",
      "geometry": {
        "type": "LineString",
        "coordinates": [
          [
            11.512,
            3.8579999999999997
          ],
          [
            11.512,
            3.868
          ]
        ]
      },
      "properties": {
        "segment_id": "seg_17",
        "u": "node_8",
        "v": "node_15",
        "distance_m": 1001,
        "road_type": "primary"
      }
    },
    {
      "type": "Feature",
      "geometry": {
        "type": "LineString",
        "coordinates": [
          [
            11.522,
            3.8579999999999997
          ],
          [
            11.532,
            3.8579999999999997
          ]
        ]
      },
      "properties": {
        "segment_id": "seg_18",
        "u": "node_9",
        "v": "node_10",
        "distance_m": 962,
        "road_type": "secondary"
      }
    },
    {
      "type": "Feature",
      "geometry": {
        "type": "LineString",
        "coordinates": [
          [
            11.522,
            3.8579999999999997
          ],
          [
            11.522,
            3.868
          ]
        ]
      },
      "properties": {
        "segment_id": "seg_19",
        "u": "node_9",
        "v": "node_16",
        "distance_m": 1421,
        "road_type": "residential"
      }
    },
    {
      "type": "Feature",
      "geometry": {
        "type": "LineString",
        "coordinates": [
          [
            11.532,
            3.8579999999999997
          ],
          [
            11.542,
            3.8579999999999997
          ]
        ]
      },
      "properties": {
        "segment_id": "seg_20",
        "u": "node_10",
        "v": "node_11",
        "distance_m": 1012,
        "road_type": "primary"
      }
    },
    {
      "type": "Feature",
      "geometry": {
        "type": "LineString",
        "coordinates": [
          [
            11.532,
            3.8579999999999997
          ],
          [
            11.532,
            3.868
          ]
        ]
      },
      "properties": {
        "segment_id": "seg_21",
        "u": "node_10",
        "v": "node_17",
        "distance_m": 1331,
        "road_type": "track"
      }
    },
    {
      "type": "Feature",
      "geometry": {
        "type": "LineString",
        "coordinates": [
          [
            11.542,
            3.8579999999999997
          ],
          [
            11.552000000000001,
            3.8579999999999997
          ]
        ]
      },
      "properties": {
        "segment_id": "seg_22",
        "u": "node_11",
        "v": "node_12",
        "distance_m": 905,
        "road_type": "track"
      }
    },
    {
      "type": "Feature",
      "geometry": {
        "type": "LineString",
        "coordinates": [
          [
            11.542,
            3.8579999999999997
          ],
          [
            11.542,
            3.868
          ]
        ]
      },
      "properties": {
        "segment_id": "seg_23",
        "u": "node_11",
        "v": "node_18",
        "distance_m": 862,
        "road_type": "track"
      }
    },
    {
      "type": "Feature",
      "geometry": {
        "type": "LineString",
        "coordinates": [
          [
            11.552000000000001,
            3.8579999999999997
          ],
          [
            11.562000000000001,
            3.8579999999999997
          ]
        ]
      },
      "properties": {
        "segment_id": "seg_24",
        "u": "node_12",
        "v": "node_13",
        "distance_m": 1196,
        "road_type": "track"
      }
    },
    {
      "type": "Feature",
      "geometry": {
        "type": "LineString",
        "coordinates": [
          [
            11.552000000000001,
            3.8579999999999997
          ],
          [
            11.552000000000001,
            3.868
          ]
        ]
      },
      "properties": {
        "segment_id": "seg_25",
        "u": "node_12",
        "v": "node_19",
        "distance_m": 902,
        "road_type": "residential"
      }
    },
    {
      "type": "Feature",
      "geometry": {
        "type": "LineString",
        "coordinates": [
          [
            11.562000000000001,
            3.8579999999999997
          ],
          [
            11.562000000000001,
            3.868
          ]
        ]
      },
      "properties": {
        "segment_id": "seg_26",
        "u": "node_13",
        "v": "node_20",
        "distance_m": 1101,
        "road_type": "primary"
      }
    },
    {
      "type": "Feature",
      "geometry": {
        "type": "LineString",
        "coordinates": [
          [
            11.502,
            3.868
          ],
          [
            11.512,
            3.868
          ]
        ]
      },
      "properties": {
        "segment_id": "seg_27",
        "u": "node_14",
        "v": "node_15",
        "distance_m": 1010,
        "road_type": "primary"
      }
    },
    {
      "type": "Feature",
      "geometry": {
        "type": "LineString",
        "coordinates": [
          [
            11.502,
            3.868
          ],
          [
            11.502,
            3.8779999999999997
          ]
        ]
      },
      "properties": {
        "segment_id": "seg_28",
        "u": "node_14",
        "v": "node_21",
        "distance_m": 1136,
        "road_type": "secondary"
      }
    },
    {
      "type": "Feature",
      "geometry": {
        "type": "LineString",
        "coordinates": [
          [
            11.512,
            3.868
          ],
          [
            11.522,
            3.868
          ]
        ]
      },
      "properties": {
        "segment_id": "seg_29",
        "u": "node_15",
        "v": "node_16",
        "distance_m": 864,
        "road_type": "track"
      }
    },
    {
      "type": "Feature",
      "geometry": {
        "type": "LineString",
        "coordinates": [
          [
            11.512,
            3.868
          ],
          [
            11.512,
            3.8779999999999997
          ]
        ]
      },
      "properties": {
        "segment_id": "seg_30",
        "u": "node_15",
        "v": "node_22",
        "distance_m": 1434,
        "road_type": "primary"
      }
    },
    {
      "type": "Feature",
      "geometry": {
        "type": "LineString",
        "coordinates": [
          [
            11.522,
            3.868
          ],
          [
            11.532,
            3.868
          ]
        ]
      },
      "properties": {
        "segment_id": "seg_31",
        "u": "node_16",
        "v": "node_17",
        "distance_m": 1226,
        "road_type": "track"
      }
    },
    {
      "type": "Feature",
      "geometry": {
        "type": "LineString",
        "coordinates": [
          [
            11.522,
            3.868
          ],
          [
            11.522,
            3.8779999999999997
          ]
        ]
      },
      "properties": {
        "segment_id": "seg_32",
        "u": "node_16",
        "v": "node_23",
        "distance_m": 1050,
        "road_type": "primary"
      }
    },
    {
      "type": "Feature",
      "geometry": {
        "type": "LineString",
        "coordinates": [
          [
            11.532,
            3.868
          ],
          [
            11.542,
            3.868
          ]
        ]
      },
      "properties": {
        "segment_id": "seg_33",
        "u": "node_17",
        "v": "node_18",
        "distance_m": 973,
        "road_type": "residential"
      }
    },
    {
      "type": "Feature",
      "geometry": {
        "type": "LineString",
        "coordinates": [
          [
            11.532,
            3.868
          ],
          [
            11.532,
            3.8779999999999997
          ]
        ]
      },
      "properties": {
        "segment_id": "seg_34",
        "u": "node_17",
        "v": "node_24",
        "distance_m": 1404,
        "road_type": "residential"
      }
    },
    {
      "type": "Feature",
      "geometry": {
        "type": "LineString",
        "coordinates": [
          [
            11.542,
            3.868
          ],
          [
            11.552000000000001,
            3.868
          ]
        ]
      },
      "properties": {
        "segment_id": "seg_35",
        "u": "node_18",
        "v": "node_19",
        "distance_m": 1460,
        "road_type": "track"
      }
    },
    {
      "type": "Feature",
      "geometry": {
        "type": "LineString",
        "coordinates": [
          [
            11.542,
            3.868
          ],
          [
            11.542,
            3.8779999999999997
          ]
        ]
      },
      "properties": {
        "segment_id": "seg_36",
        "u": "node_18",
        "v": "node_25",
        "distance_m": 1192,
        "road_type": "track"
      }
    },
    {
      "type": "Feature",
      "geometry": {
        "type": "LineString",
        "coordinates": [
          [
            11.552000000000001,
            3.868
          ],
          [
            11.562000000000001,
            3.868
          ]
        ]
      },
      "properties": {
        "segment_id": "seg_37",
        "u": "node_19",
        "v": "node_20",
        "distance_m": 1189,
        "road_type": "track"
      }
    },
    {
      "type": "Feature",
      "geometry": {
        "type": "LineString",
        "coordinates": [
          [
            11.552000000000001,
            3.868
          ],
          [
            11.552000000000001,
            3.8779999999999997
          ]
        ]
      },
      "properties": {
        "segment_id": "seg_38",
        "u": "node_19",
        "v": "node_26",
        "distance_m": 1362,
        "road_type": "primary"
      }
    },
    {
      "type": "Feature",
      "geometry": {
        "type": "LineString",
        "coordinates": [
          [
            11.562000000000001,
            3.868
          ],
          [
            11.562000000000001,
            3.8779999999999997
          ]
        ]
      },
      "properties": {
        "segment_id": "seg_39",
        "u": "node_20",
        "v": "node_27",
        "distance_m": 1336,
        "road_type": "track"
      }
    },
    {
      "type": "Feature",
      "geometry": {
        "type": "LineString",
        "coordinates": [
          [
            11.502,
            3.8779999999999997
          ],
          [
            11.512,
            3.8779999999999997
          ]
        ]
      },
      "properties": {
        "segment_id": "seg_40",
        "u": "node_21",
        "v": "node_22",
        "distance_m": 1462,
        "road_type": "secondary"
      }
    },
    {
      "type": "Feature",
      "geometry": {
        "type": "LineString",
        "coordinates": [
          [
            11.502,
            3.8779999999999997
          ],
          [
            11.502,
            3.888
          ]
        ]
      },
      "properties": {
        "segment_id": "seg_41",
        "u": "node_21",
        "v": "node_28",
        "distance_m": 1034,
        "road_type": "primary"
      }
    },
    {
      "type": "Feature",
      "geometry": {
        "type": "LineString",
        "coordinates": [
          [
            11.512,
            3.8779999999999997
          ],
          [
            11.522,
            3.8779999999999997
          ]
        ]
      },
      "properties": {
        "segment_id": "seg_42",
        "u": "node_22",
        "v": "node_23",
        "distance_m": 837,
        "road_type": "secondary"
      }
    },
    {
      "type": "Feature",
      "geometry": {
        "type": "LineString",
        "coordinates": [
          [
            11.512,
            3.8779999999999997
          ],
          [
            11.512,
            3.888
          ]
        ]
      },
      "properties": {
        "segment_id": "seg_43",
        "u": "node_22",
        "v": "node_29",
        "distance_m": 1349,
        "road_type": "residential"
      }
    },
    {
      "type": "Feature",
      "geometry": {
        "type": "LineString",
        "coordinates": [
          [
            11.522,
            3.8779999999999997
          ],
          [
            11.532,
            3.8779999999999997
          ]
        ]
      },
      "properties": {
        "segment_id": "seg_44",
        "u": "node_23",
        "v": "node_24",
        "distance_m": 942,
        "road_type": "residential"
      }
    },
    {
      "type": "Feature",
      "geometry": {
        "type": "LineString",
        "coordinates": [
          [
            11.522,
            3.8779999999999997
          ],
          [
            11.522,
            3.888
          ]
        ]
      },
      "properties": {
        "segment_id": "seg_45",
        "u": "node_23",
        "v": "node_30",
        "distance_m": 1305,
        "road_type": "residential"
      }
    },
    {
      "type": "Feature",
      "geometry": {
        "type": "LineString",
        "coordinates": [
          [
            11.532,
            3.8779999999999997
          ],
          [
            11.542,
            3.8779999999999997
          ]
        ]
      },
      "properties": {
        "segment_id": "seg_46",
        "u": "node_24",
        "v": "node_25",
        "distance_m": 953,
        "road_type": "track"
      }
    },
    {
      "type": "Feature",
      "geometry": {
        "type": "LineString",
        "coordinates": [
          [
            11.532,
            3.8779999999999997
          ],
          [
            11.532,
            3.888
          ]
        ]
      },
      "properties": {
        "segment_id": "seg_47",
        "u": "node_24",
        "v": "node_31",
        "distance_m": 1001,
        "road_type": "residential"
      }
    },
    {
      "type": "Feature",
      "geometry": {
        "type": "LineString",
        "coordinates": [
          [
            11.542,
            3.8779999999999997
          ],
          [
            11.552000000000001,
            3.8779999999999997
          ]
        ]
      },
      "properties": {
        "segment_id": "seg_48",
        "u": "node_25",
        "v": "node_26",
        "distance_m": 1187,
        "road_type": "residential"
      }
    },
    {
      "type": "Feature",
      "geometry": {
        "type": "LineString",
        "coordinates": [
          [
            11.542,
            3.8779999999999997
          ],
          [
            11.542,
            3.888
          ]
        ]
      },
      "properties": {
        "segment_id": "seg_49",
        "u": "node_25",
        "v": "node_32",
        "distance_m": 1115,
        "road_type": "residential"
      }
    },
    {
      "type": "Feature",
      "geometry": {
        "type": "LineString",
        "coordinates": [
          [
            11.552000000000001,
            3.8779999999999997
          ],
          [
            11.562000000000001,
            3.8779999999999997
          ]
        ]
      },
      "properties": {
        "segment_id": "seg_50",
        "u": "node_26",
        "v": "node_27",
        "distance_m": 815,
        "road_type": "residential"
      }
    },
    {
      "type": "Feature",
      "geometry": {
        "type": "LineString",
        "coordinates": [
          [
            11.552000000000001,
            3.8779999999999997
          ],
          [
            11.552000000000001,
            3.888
          ]
        ]
      },
      "properties": {
        "segment_id": "seg_51",
        "u": "node_26",
        "v": "node_33",
        "distance_m": 1195,
        "road_type": "secondary"
      }
    },
    {
      "type": "Feature",
      "geometry": {
        "type": "LineString",
        "coordinates": [
          [
            11.562000000000001,
            3.8779999999999997
          ],
          [
            11.562000000000001,
            3.888
          ]
        ]
      },
      "properties": {
        "segment_id": "seg_52",
        "u": "node_27",
        "v": "node_34",
        "distance_m": 1500,
        "road_type": "residential"
      }
    },
    {
      "type": "Feature",
      "geometry": {
        "type": "LineString",
        "coordinates": [
          [
            11.502,
            3.888
          ],
          [
            11.512,
            3.888
          ]
        ]
      },
      "properties": {
        "segment_id": "seg_53",
        "u": "node_28",
        "v": "node_29",
        "distance_m": 1211,
        "road_type": "primary"
      }
    },
    {
      "type": "Feature",
      "geometry": {
        "type": "LineString",
        "coordinates": [
          [
            11.502,
            3.888
          ],
          [
            11.502,
            3.8979999999999997
          ]
        ]
      },
      "properties": {
        "segment_id": "seg_54",
        "u": "node_28",
        "v": "node_35",
        "distance_m": 825,
        "road_type": "track"
      }
    },
    {
      "type": "Feature",
      "geometry": {
        "type": "LineString",
        "coordinates": [
          [
            11.512,
            3.888
          ],
          [
            11.522,
            3.888
          ]
        ]
      },
      "properties": {
        "segment_id": "seg_55",
        "u": "node_29",
        "v": "node_30",
        "distance_m": 832,
        "road_type": "residential"
      }
    },
    {
      "type": "Feature",
      "geometry": {
        "type": "LineString",
        "coordinates": [
          [
            11.512,
            3.888
          ],
          [
            11.512,
            3.8979999999999997
          ]
        ]
      },
      "properties": {
        "segment_id": "seg_56",
        "u": "node_29",
        "v": "node_36",
        "distance_m": 1385,
        "road_type": "track"
      }
    },
    {
      "type": "Feature",
      "geometry": {
        "type": "LineString",
        "coordinates": [
          [
            11.522,
            3.888
          ],
          [
            11.532,
            3.888
          ]
        ]
      },
      "properties": {
        "segment_id": "seg_57",
        "u": "node_30",
        "v": "node_31",
        "distance_m": 886,
        "road_type": "secondary"
      }
    },
    {
      "type": "Feature",
      "geometry": {
        "type": "LineString",
        "coordinates": [
          [
            11.522,
            3.888
          ],
          [
            11.522,
            3.8979999999999997
          ]
        ]
      },
      "properties": {
        "segment_id": "seg_58",
        "u": "node_30",
        "v": "node_37",
        "distance_m": 1029,
        "road_type": "primary"
      }
    },
    {
      "type": "Feature",
      "geometry": {
        "type": "LineString",
        "coordinates": [
          [
            11.532,
            3.888
          ],
          [
            11.542,
            3.888
          ]
        ]
      },
      "properties": {
        "segment_id": "seg_59",
        "u": "node_31",
        "v": "node_32",
        "distance_m": 1162,
        "road_type": "residential"
      }
    },
    {
      "type": "Feature",
      "geometry": {
        "type": "LineString",
        "coordinates": [
          [
            11.532,
            3.888
          ],
          [
            11.532,
            3.8979999999999997
          ]
        ]
      },
      "properties": {
        "segment_id": "seg_60",
        "u": "node_31",
        "v": "node_38",
        "distance_m": 911,
        "road_type": "secondary"
      }
    },
    {
      "type": "Feature",
      "geometry": {
        "type": "LineString",
        "coordinates": [
          [
            11.542,
            3.888
          ],
          [
            11.552000000000001,
            3.888
          ]
        ]
      },
      "properties": {
        "segment_id": "seg_61",
        "u": "node_32",
        "v": "node_33",
        "distance_m": 1056,
        "road_type": "residential"
      }
    },
    {
      "type": "Feature",
      "geometry": {
        "type": "LineString",
        "coordinates": [
          [
            11.542,
            3.888
          ],
          [
            11.542,
            3.8979999999999997
          ]
        ]
      },
      "properties": {
        "segment_id": "seg_62",
        "u": "node_32",
        "v": "node_39",
        "distance_m": 996,
        "road_type": "primary"
      }
    },
    {
      "type": "Feature",
      "geometry": {
        "type": "LineString",
        "coordinates": [
          [
            11.552000000000001,
            3.888
          ],
          [
            11.562000000000001,
            3.888
          ]
        ]
      },
      "properties": {
        "segment_id": "seg_63",
        "u": "node_33",
        "v": "node_34",
        "distance_m": 1322,
        "road_type": "primary"
      }
    },
    {
      "type": "Feature",
      "geometry": {
        "type": "LineString",
        "coordinates": [
          [
            11.552000000000001,
            3.888
          ],
          [
            11.552000000000001,
            3.8979999999999997
          ]
        ]
      },
      "properties": {
        "segment_id": "seg_64",
        "u": "node_33",
        "v": "node_40",
        "distance_m": 1220,
        "road_type": "residential"
      }
    },
    {
      "type": "Feature",
      "geometry": {
        "type": "LineString",
        "coordinates": [
          [
            11.562000000000001,
            3.888
          ],
          [
            11.562000000000001,
            3.8979999999999997
          ]
        ]
      },
      "properties": {
        "segment_id": "seg_65",
        "u": "node_34",
        "v": "node_41",
        "distance_m": 1451,
        "road_type": "track"
      }
    },
    {
      "type": "Feature",
      "geometry": {
        "type": "LineString",
        "coordinates": [
          [
            11.502,
            3.8979999999999997
          ],
          [
            11.512,
            3.8979999999999997
          ]
        ]
      },
      "properties": {
        "segment_id": "seg_66",
        "u": "node_35",
        "v": "node_36",
        "distance_m": 906,
        "road_type": "primary"
      }
    },
    {
      "type": "Feature",
      "geometry": {
        "type": "LineString",
        "coordinates": [
          [
            11.502,
            3.8979999999999997
          ],
          [
            11.502,
            3.908
          ]
        ]
      },
      "properties": {
        "segment_id": "seg_67",
        "u": "node_35",
        "v": "node_42",
        "distance_m": 945,
        "road_type": "primary"
      }
    },
    {
      "type": "Feature",
      "geometry": {
        "type": "LineString",
        "coordinates": [
          [
            11.512,
            3.8979999999999997
          ],
          [
            11.522,
            3.8979999999999997
          ]
        ]
      },
      "properties": {
        "segment_id": "seg_68",
        "u": "node_36",
        "v": "node_37",
        "distance_m": 1381,
        "road_type": "residential"
      }
    },
    {
      "type": "Feature",
      "geometry": {
        "type": "LineString",
        "coordinates": [
          [
            11.512,
            3.8979999999999997
          ],
          [
            11.512,
            3.908
          ]
        ]
      },
      "properties": {
        "segment_id": "seg_69",
        "u": "node_36",
        "v": "node_43",
        "distance_m": 1443,
        "road_type": "track"
      }
    },
    {
      "type": "Feature",
      "geometry": {
        "type": "LineString",
        "coordinates": [
          [
            11.522,
            3.8979999999999997
          ],
          [
            11.532,
            3.8979999999999997
          ]
        ]
      },
      "properties": {
        "segment_id": "seg_70",
        "u": "node_37",
        "v": "node_38",
        "distance_m": 1052,
        "road_type": "residential"
      }
    },
    {
      "type": "Feature",
      "geometry": {
        "type": "LineString",
        "coordinates": [
          [
            11.522,
            3.8979999999999997
          ],
          [
            11.522,
            3.908
          ]
        ]
      },
      "properties": {
        "segment_id": "seg_71",
        "u": "node_37",
        "v": "node_44",
        "distance_m": 1281,
        "road_type": "residential"
      }
    },
    {
      "type": "Feature",
      "geometry": {
        "type": "LineString",
        "coordinates": [
          [
            11.532,
            3.8979999999999997
          ],
          [
            11.542,
            3.8979999999999997
          ]
        ]
      },
      "properties": {
        "segment_id": "seg_72",
        "u": "node_38",
        "v": "node_39",
        "distance_m": 917,
        "road_type": "track"
      }
    },
    {
      "type": "Feature",
      "geometry": {
        "type": "LineString",
        "coordinates": [
          [
            11.532,
            3.8979999999999997
          ],
          [
            11.532,
            3.908
          ]
        ]
      },
      "properties": {
        "segment_id": "seg_73",
        "u": "node_38",
        "v": "node_45",
        "distance_m": 1034,
        "road_type": "primary"
      }
    },
    {
      "type": "Feature",
      "geometry": {
        "type": "LineString",
        "coordinates": [
          [
            11.542,
            3.8979999999999997
          ],
          [
            11.552000000000001,
            3.8979999999999997
          ]
        ]
      },
      "properties": {
        "segment_id": "seg_74",
        "u": "node_39",
        "v": "node_40",
        "distance_m": 831,
        "road_type": "secondary"
      }
    },
    {
      "type": "Feature",
      "geometry": {
        "type": "LineString",
        "coordinates": [
          [
            11.542,
            3.8979999999999997
          ],
          [
            11.542,
            3.908
          ]
        ]
      },
      "properties": {
        "segment_id": "seg_75",
        "u": "node_39",
        "v": "node_46",
        "distance_m": 1363,
        "road_type": "residential"
      }
    },
    {
      "type": "Feature",
      "geometry": {
        "type": "LineString",
        "coordinates": [
          [
            11.552000000000001,
            3.8979999999999997
          ],
          [
            11.562000000000001,
            3.8979999999999997
          ]
        ]
      },
      "properties": {
        "segment_id": "seg_76",
        "u": "node_40",
        "v": "node_41",
        "distance_m": 1208,
        "road_type": "primary"
      }
    },
    {
      "type": "Feature",
      "geometry": {
        "type": "LineString",
        "coordinates": [
          [
            11.552000000000001,
            3.8979999999999997
          ],
          [
            11.552000000000001,
            3.908
          ]
        ]
      },
      "properties": {
        "segment_id": "seg_77",
        "u": "node_40",
        "v": "node_47",
        "distance_m": 1488,
        "road_type": "primary"
      }
    },
    {
      "type": "Feature",
      "geometry": {
        "type": "LineString",
        "coordinates": [
          [
            11.562000000000001,
            3.8979999999999997
          ],
          [
            11.562000000000001,
            3.908
          ]
        ]
      },
      "properties": {
        "segment_id": "seg_78",
        "u": "node_41",
        "v": "node_48",
        "distance_m": 1319,
        "road_type": "secondary"
      }
    },
    {
      "type": "Feature",
      "geometry": {
        "type": "LineString",
        "coordinates": [
          [
            11.502,
            3.908
          ],
          [
            11.512,
            3.908
          ]
        ]
      },
      "properties": {
        "segment_id": "seg_79",
        "u": "node_42",
        "v": "node_43",
        "distance_m": 1434,
        "road_type": "secondary"
      }
    },
    {
      "type": "Feature",
      "geometry": {
        "type": "LineString",
        "coordinates": [
          [
            11.502,
            3.908
          ],
          [
            11.502,
            3.9179999999999997
          ]
        ]
      },
      "properties": {
        "segment_id": "seg_80",
        "u": "node_42",
        "v": "node_49",
        "distance_m": 1197,
        "road_type": "primary"
      }
    },
    {
      "type": "Feature",
      "geometry": {
        "type": "LineString",
        "coordinates": [
          [
            11.512,
            3.908
          ],
          [
            11.522,
            3.908
          ]
        ]
      },
      "properties": {
        "segment_id": "seg_81",
        "u": "node_43",
        "v": "node_44",
        "distance_m": 955,
        "road_type": "track"
      }
    },
    {
      "type": "Feature",
      "geometry": {
        "type": "LineString",
        "coordinates": [
          [
            11.512,
            3.908
          ],
          [
            11.512,
            3.9179999999999997
          ]
        ]
      },
      "properties": {
        "segment_id": "seg_82",
        "u": "node_43",
        "v": "node_50",
        "distance_m": 1474,
        "road_type": "track"
      }
    },
    {
      "type": "Feature",
      "geometry": {
        "type": "LineString",
        "coordinates": [
          [
            11.522,
            3.908
          ],
          [
            11.532,
            3.908
          ]
        ]
      },
      "properties": {
        "segment_id": "seg_83",
        "u": "node_44",
        "v": "node_45",
        "distance_m": 1265,
        "road_type": "primary"
      }
    },
    {
      "type": "Feature",
      "geometry": {
        "type": "LineString",
        "coordinates": [
          [
            11.522,
            3.908
          ],
          [
            11.522,
            3.9179999999999997
          ]
        ]
      },
      "properties": {
        "segment_id": "seg_84",
        "u": "node_44",
        "v": "node_51",
        "distance_m": 965,
        "road_type": "residential"
      }
    },
    {
      "type": "Feature",
      "geometry": {
        "type": "LineString",
        "coordinates": [
          [
            11.532,
            3.908
          ],
          [
            11.542,
            3.908
          ]
        ]
      },
      "properties": {
        "segment_id": "seg_85",
        "u": "node_45",
        "v": "node_46",
        "distance_m": 1351,
        "road_type": "track"
      }
    },
    {
      "type": "Feature",
      "geometry": {
        "type": "LineString",
        "coordinates": [
          [
            11.532,
            3.908
          ],
          [
            11.532,
            3.9179999999999997
          ]
        ]
      },
      "properties": {
        "segment_id": "seg_86",
        "u": "node_45",
        "v": "node_52",
        "distance_m": 1081,
        "road_type": "secondary"
      }
    },
    {
      "type": "Feature",
      "geometry": {
        "type": "LineString",
        "coordinates": [
          [
            11.542,
            3.908
          ],
          [
            11.552000000000001,
            3.908
          ]
        ]
      },
      "properties": {
        "segment_id": "seg_87",
        "u": "node_46",
        "v": "node_47",
        "distance_m": 1423,
        "road_type": "secondary"
      }
    },
    {
      "type": "Feature",
      "geometry": {
        "type": "LineString",
        "coordinates": [
          [
            11.542,
            3.908
          ],
          [
            11.542,
            3.9179999999999997
          ]
        ]
      },
      "properties": {
        "segment_id": "seg_88",
        "u": "node_46",
        "v": "node_53",
        "distance_m": 1240,
        "road_type": "secondary"
      }
    },
    {
      "type": "Feature",
      "geometry": {
        "type": "LineString",
        "coordinates": [
          [
            11.552000000000001,
            3.908
          ],
          [
            11.562000000000001,
            3.908
          ]
        ]
      },
      "properties": {
        "segment_id": "seg_89",
        "u": "node_47",
        "v": "node_48",
        "distance_m": 1291,
        "road_type": "primary"
      }
    },
    {
      "type": "Feature",
      "geometry": {
        "type": "LineString",
        "coordinates": [
          [
            11.552000000000001,
            3.908
          ],
          [
            11.552000000000001,
            3.9179999999999997
          ]
        ]
      },
      "properties": {
        "segment_id": "seg_90",
        "u": "node_47",
        "v": "node_54",
        "distance_m": 1152,
        "road_type": "secondary"
      }
    },
    {
      "type": "Feature",
      "geometry": {
        "type": "LineString",
        "coordinates": [
          [
            11.562000000000001,
            3.908
          ],
          [
            11.562000000000001,
            3.9179999999999997
          ]
        ]
      },
      "properties": {
        "segment_id": "seg_91",
        "u": "node_48",
        "v": "node_55",
        "distance_m": 1421,
        "road_type": "track"
      }
    },
    {
      "type": "Feature",
      "geometry": {
        "type": "LineString",
        "coordinates": [
          [
            11.502,
            3.9179999999999997
          ],
          [
            11.512,
            3.9179999999999997
          ]
        ]
      },
      "properties": {
        "segment_id": "seg_92",
        "u": "node_49",
        "v": "node_50",
        "distance_m": 952,
        "road_type": "residential"
      }
    },
    {
      "type": "Feature",
      "geometry": {
        "type": "LineString",
        "coordinates": [
          [
            11.512,
            3.9179999999999997
          ],
          [
            11.522,
            3.9179999999999997
          ]
        ]
      },
      "properties": {
        "segment_id": "seg_93",
        "u": "node_50",
        "v": "node_51",
        "distance_m": 1392,
        "road_type": "secondary"
      }
    },
    {
      "type": "Feature",
      "geometry": {
        "type": "LineString",
        "coordinates": [
          [
            11.522,
            3.9179999999999997
          ],
          [
            11.532,
            3.9179999999999997
          ]
        ]
      },
      "properties": {
        "segment_id": "seg_94",
        "u": "node_51",
        "v": "node_52",
        "distance_m": 801,
        "road_type": "primary"
      }
    },
    {
      "type": "Feature",
      "geometry": {
        "type": "LineString",
        "coordinates": [
          [
            11.532,
            3.9179999999999997
          ],
          [
            11.542,
            3.9179999999999997
          ]
        ]
      },
      "properties": {
        "segment_id": "seg_95",
        "u": "node_52",
        "v": "node_53",
        "distance_m": 1210,
        "road_type": "secondary"
      }
    },
    {
      "type": "Feature",
      "geometry": {
        "type": "LineString",
        "coordinates": [
          [
            11.542,
            3.9179999999999997
          ],
          [
            11.552000000000001,
            3.9179999999999997
          ]
        ]
      },
      "properties": {
        "segment_id": "seg_96",
        "u": "node_53",
        "v": "node_54",
        "distance_m": 1144,
        "road_type": "residential"
      }
    },
    {
      "type": "Feature",
      "geometry": {
        "type": "LineString",
        "coordinates": [
          [
            11.552000000000001,
            3.9179999999999997
          ],
          [
            11.562000000000001,
            3.9179999999999997
          ]
        ]
      },
      "properties": {
        "segment_id": "seg_97",
        "u": "node_54",
        "v": "node_55",
        "distance_m": 1292,
        "road_type": "track"
      }
    }
  ]
}